ISS OBJECT XX           
1 66911U 98067XX  26069.40427306  .00327969  00000+0  20071-2 0  9999
2 66911  51.6205  60.3911 0006887  88.8757 271.3031 15.75795893 15301
ISS OBJECT XY           
1 66912U 98067XY  26069.22069271  .00112180  00000+0  11637-2 0  9998
2 66912  51.6272  64.4503 0003218  91.2720 268.8644 15.63798105 15230
KNACKSAT-2              
1 67683U 98067XZ  26069.50037502  .00044028  00000+0  72346-3 0  9997
2 67683  51.6310  67.8211 0009378 188.4486 171.6347 15.51899743  4914
GXIBA-1                 
1 67684U 98067YA  26069.40751467  .00095739  00000+0  14160-2 0  9994
2 67684  51.6304  67.9518 0011132 178.2163 181.8869 15.54450366  4907
CORAL                   
1 67685U 98067YB  26069.62450904  .00048969  00000+0  79168-3 0  9994
2 67685  51.6307  67.1509 0011380 185.5347 174.5518 15.52282443  4933
ISS OBJECT YC           
1 67686U 98067YC  26069.23252159  .00063974  00000+0  10125-2 0  9994
2 67686  51.6310  69.0348 0007963 152.0771 208.0648 15.52794890  4876
LEOPARD                 
1 67687U 98067YD  26069.56233049  .00045275  00000+0  73904-3 0  9997
2 67687  51.6319  67.4868 0007913 156.8931 203.2415 15.52085814  4845
ISS OBJECT YE           
1 67688U 98067YE  26069.81440543  .00057690  00000+0  92094-3 0  9990
2 67688  51.6310  66.1711 0007900 154.7000 205.4378 15.52601485  4884
CREW DRAGON 12          
1 67796U 26031A   26069.48132270  .00008982  00000+0  17349-3 0  9990
2 67796  51.6323  68.4424 0007951 177.3714 182.7318 15.48562436556344
